{
    "links": {
        "self": "http://www.neowsapp.com/rest/v1/neo/3152314?api_key=iIulBulltgU6a56xZRHN4H3l9WmuAYTsLGpBGhQ2"
    },
    "id": "3152314",
    "neo_reference_id": "3152314",
    "name": "(2003 GG21)",
    "designation": "2003 GG21",
    "nasa_jpl_url": "http://ssd.jpl.nasa.gov/sbdb.cgi?sstr=3152314",
    "absolute_magnitude_h": 22.0,
    "estimated_diameter": {
        "kilometers": {
            "estimated_diameter_min": 0.1058168859,
            "estimated_diameter_max": 0.2366137501
        },
        "meters": {
            "estimated_diameter_min": 105.8168859331,
            "estimated_diameter_max": 236.6137501138
        },
        "miles": {
            "estimated_diameter_min": 0.0657515442,
            "estimated_diameter_max": 0.1470249225
        },
        "feet": {
            "estimated_diameter_min": 347.1682720448,
            "estimated_diameter_max": 776.2918559233
        }
    },
    "is_potentially_hazardous_asteroid": true,
    "close_approach_data": [
        {
            "close_approach_date": "1996-10-07",
            "close_approach_date_full": "1996-Oct-07 14:50",
            "epoch_date_close_approach": 844699800000,
            "relative_velocity": {
                "kilometers_per_second": "24.8432689133",
                "kilometers_per_hour": "89435.7680878757",
                "miles_per_hour": "55571.9082321581"
            },
            "miss_distance": {
                "astronomical": "0.1473944963",
                "lunar": "57.3364590607",
                "kilometers": "22049902.696202881",
                "miles": "13701174.2035305178"
            },
            "orbiting_body": "Earth"
        },
        {
            "close_approach_date": "2003-04-03",
            "close_approach_date_full": "2003-Apr-03 13:57",
            "epoch_date_close_approach": 1049378220000,
            "relative_velocity": {
                "kilometers_per_second": "20.6487406694",
                "kilometers_per_hour": "74335.4664099944",
                "miles_per_hour": "46189.1680034768"
            },
            "miss_distance": {
                "astronomical": "0.0079723909",
                "lunar": "3.1012600601",
                "kilometers": "1192652.697447383",
                "miles": "741080.0218565654"
            },
            "orbiting_body": "Moon"
        },
        {
            "close_approach_date": "2003-04-03",
            "close_approach_date_full": "2003-Apr-03 18:08",
            "epoch_date_close_approach": 1049393280000,
            "relative_velocity": {
                "kilometers_per_second": "20.8973102208",
                "kilometers_per_hour": "75230.3167947461",
                "miles_per_hour": "46745.1932328243"
            },
            "miss_distance": {
                "astronomical": "0.0087179742",
                "lunar": "3.3912919638",
                "kilometers": "1304190.371034954",
                "miles": "810386.3184482052"
            },
            "orbiting_body": "Earth"
        }
    ],
    "orbital_data": {
        "orbit_id": "16",
        "orbit_determination_date": "2017-04-06 09:14:11",
        "first_observation_date": "2003-04-07",
        "last_observation_date": "2003-05-06",
        "data_arc_in_days": 29,
        "observations_used": 138,
        "orbit_uncertainty": "7",
        "minimum_orbit_intersection": ".00577971",
        "jupiter_tisserand_invariant": "3.316",
        "epoch_osculation": "2459000.5",
        "eccentricity": ".7117775422206093",
        "semi_major_axis": "2.142754959729786",
        "inclination": "10.12019771254401",
        "ascending_node_longitude": "11.78818175383772",
        "orbital_period": "1145.663799106248",
        "perihelion_distance": ".6175901009122983",
        "perihelion_argument": "96.54087669322483",
        "aphelion_distance": "3.667919818547274",
        "perihelion_time": "2459557.309963447805",
        "mean_anomaly": "185.0345459133949",
        "mean_motion": ".3142283105050908",
        "equinox": "J2000",
        "orbit_class": {
            "orbit_class_type": "APO",
            "orbit_class_description": "Near-Earth asteroid orbits which cross the Earth’s orbit similar to that of 1862 Apollo",
            "orbit_class_range": "a (semi-major axis) > 1.0 AU; q (perihelion) < 1.017 AU"
        }
    },
    "is_sentry_object": false
}